COSMOS 2251 DEB         
1 35442U 93036AKL 17345.33053391  .00000811  00000-0  24407-3 0  9996
2 35442  74.0408 205.6407 0016248 244.3300 231.6917 14.44105151449220
